[{"OBJECT_NAME":"STARLINK-3459","OBJECT_ID":"2022-016AV","EPOCH":"2026-03-09T22:13:54.539616","MEAN_MOTION":15.08836822,"ECCENTRICITY":0.00012682,"INCLINATION":53.2177,"RA_OF_ASC_NODE":308.071,"ARG_OF_PERICENTER":84.3561,"MEAN_ANOMALY":275.7576,"EPHEMERIS_TYPE":0,"CLASSIFICATION_TYPE":"U","NORAD_CAT_ID":51757,"ELEMENT_SET_NO":999,"REV_AT_EPOCH":22374,"BSTAR":7.9981942e-5,"MEAN_MOTION_DOT":9.85e-6,"MEAN_MOTION_DDOT":0},{"OBJECT_NAME":"YAM-8","OBJECT_ID":"2025-052AW","EPOCH":"2026-03-09T17:32:32.161056","MEAN_MOTION":15.10898939,"ECCENTRICITY":0.00023693,"INCLINATION":97.7023,"RA_OF_ASC_NODE":329.5345,"ARG_OF_PERICENTER":152.6796,"MEAN_ANOMALY":207.4558,"EPHEMERIS_TYPE":0,"CLASSIFICATION_TYPE":"U","NORAD_CAT_ID":63254,"ELEMENT_SET_NO":999,"REV_AT_EPOCH":5424,"BSTAR":0.00047267461,"MEAN_MOTION_DOT":7.81e-5,"MEAN_MOTION_DDOT":0}]
